{"generatedAt":"2026-04-29T08:26:58.420709Z","satellites":[{"name":"ONEWEB-0605","tle1":"1 54669U 22166AD  26119.08667574  .00000024  00000+0  25532-4 0  9995","tle2":"2 54669  87.9220 253.7620 0002017 119.0812 241.0524 13.21827067165026"},{"name":"ONEWEB-0606","tle1":"1 54670U 22166AE  26119.10854140  .00000001  00000+0 -29700-4 0  9994","tle2":"2 54670  87.9221 253.7703 0001755  95.5926 264.5408 13.21826976165088"},{"name":"ONEWEB-0607","tle1":"1 54671U 22166AF  26119.07489917  .00000006  00000+0 -15956-4 0  9990","tle2":"2 54671  87.9226 253.7447 0002050 100.1270 260.0096 13.21824465165055"},{"name":"ONEWEB-0608","tle1":"1 54672U 22166AG  26119.08161502  .00000055  00000+0  10125-3 0  9994","tle2":"2 54672  87.9228 253.7384 0002208 113.0050 247.1317 13.21824654165065"},{"name":"ONEWEB-0610","tle1":"1 54673U 22166AH  26119.13713593  .00000017  00000+0  90394-5 0  9990","tle2":"2 54673  87.9220 253.7466 0002426 109.6037 250.5358 13.21824147164976"},{"name":"ONEWEB-0611","tle1":"1 54674U 22166AJ  26119.13039280 -.00000830  00000+0 -20411-2 0  9990","tle2":"2 54674  87.9216 253.7441 0001870  97.6787 262.4560 13.21827274164965"},{"name":"ONEWEB-0612","tle1":"1 54675U 22166AK  26119.06817510 -.00000039  00000+0 -12704-3 0  9991","tle2":"2 54675  87.9231 253.7465 0002001 104.6211 255.5145 13.21824540164940"},{"name":"ONEWEB-0615","tle1":"1 54676U 22166AL  26119.12366679 -.00000103  00000+0 -28077-3 0  9996","tle2":"2 54676  87.9220 253.7545 0001843  91.4599 268.6746 13.21825053164967"},{"name":"ONEWEB-0655","tle1":"1 54677U 22166AM  26118.79734655  .00000028  00000+0  35590-4 0  9995","tle2":"2 54677  87.9219 253.8216 0002173  98.1992 261.9388 13.21826646164912"},{"name":"ONEWEB-0659","tle1":"1 54678U 22166AN  26119.11692227 -.00000050  00000+0 -15349-3 0  9997","tle2":"2 54678  87.9217 253.7581 0001795  99.9656 260.1681 13.21819103165042"},{"name":"ONEWEB-0685","tle1":"1 54679U 22166AP  26119.11700657  .00000071  00000+0  14044-3 0  9997","tle2":"2 54679  87.9217 253.7514 0002083 100.8926 259.2442 13.21816967164938"},{"name":"ONEWEB-0712","tle1":"1 54680U 22166AQ  26119.04198013 -.00000089  00000+0 -26731-3 0  9995","tle2":"2 54680  87.9088 238.5337 0002327  94.3601 265.7796 13.16594262165590"},{"name":"ONEWEB-0714","tle1":"1 54681U 22166AR  26119.12199799 -.00000007  00000+0 -49558-4 0  9990","tle2":"2 54681  87.9220 253.7466 0002117  97.4691 262.6683 13.21824556165051"},{"name":"ONEWEB-0532","tle1":"1 55140U 23004A   26119.13045444 -.00000008  00000+0 -53134-4 0  9997","tle2":"2 55140  87.9180  15.6132 0001565  89.7713 270.3598 13.17648491161129"},{"name":"ONEWEB-0533","tle1":"1 55141U 23004B   26119.13197056  .00000296  00000+0  78882-3 0  9998","tle2":"2 55141  87.8997   0.4184 0001889  85.1524 274.9820 13.12441876161629"},{"name":"ONEWEB-0541","tle1":"1 55142U 23004C   26119.19978061  .00000586  00000+0  16169-2 0  9999","tle2":"2 55142  87.8936  30.7941 0001684  76.1776 283.9540 13.11418828159527"},{"name":"ONEWEB-0543","tle1":"1 55143U 23004D   26119.14764698  .00000014  00000+0  19859-5 0  9992","tle2":"2 55143  87.9189 345.2290 0001952  79.4635 280.6717 13.18680603163230"},{"name":"ONEWEB-0544","tle1":"1 55144U 23004E   26119.14094220  .00000062  00000+0  12519-3 0  9997","tle2":"2 55144  87.9190 345.2297 0001677  75.5225 284.6093 13.18702686163233"},{"name":"ONEWEB-0560","tle1":"1 55145U 23004F   26119.13423801  .00000055  00000+0  10600-3 0  9999","tle2":"2 55145  87.9191 345.2201 0001843  74.5267 285.6068 13.18728527163246"},{"name":"ONEWEB-0565","tle1":"1 55146U 23004G   26119.12753647  .00000067  00000+0  13768-3 0  9994","tle2":"2 55146  87.9183 345.2539 0001353  74.6520 285.4762 13.18745223163231"},{"name":"ONEWEB-0567","tle1":"1 55147U 23004H   26119.12083437  .00000127  00000+0  28852-3 0  9995","tle2":"2 55147  87.9193 345.2353 0001537  73.5038 286.6263 13.18767057163231"},{"name":"ONEWEB-0569","tle1":"1 55148U 23004J   26119.10211407  .00000242  00000+0  62710-3 0  9993","tle2":"2 55148  87.8969 329.9951 0001809  55.9423 304.1878 13.13470768163737"},{"name":"ONEWEB-0570","tle1":"1 55149U 23004K   26119.11198250  .00000037  00000+0  60841-4 0  9991","tle2":"2 55149  87.9191 345.2351 0001425  93.5612 266.5683 13.18549905163227"},{"name":"ONEWEB-0571","tle1":"1 55150U 23004L   26119.10527581  .00000076  00000+0  16157-3 0  9998","tle2":"2 55150  87.9192 345.2352 0001256  40.3669 319.7556 13.18571852163232"},{"name":"ONEWEB-0572","tle1":"1 55151U 23004M   26119.16082799  .00000068  00000+0  14198-3 0  9996","tle2":"2 55151  87.9180  15.6085 0001607  76.2162 283.9148 13.17648339161025"},{"name":"ONEWEB-0573","tle1":"1 55152U 23004N   26119.17445013  .00000061  00000+0  12099-3 0  9991","tle2":"2 55152  87.9189 345.2229 0000965  77.7571 282.3669 13.18593210163237"},{"name":"ONEWEB-0588","tle1":"1 55153U 23004P   26119.16774307  .00000022  00000+0  22399-4 0  9994","tle2":"2 55153  87.9191 345.2252 0001315  93.6892 266.4390 13.18614719163232"},{"name":"ONEWEB-0598","tle1":"1 55154U 23004Q   26119.17773447 -.00000183  00000+0 -55072-3 0  9993","tle2":"2 55154  87.8925  30.8143 0001720  54.2799 305.8489 13.11416546159471"},{"name":"ONEWEB-0599","tle1":"1 55155U 23004R   26119.12201958  .00000082  00000+0  17821-3 0  9998","tle2":"2 55155  87.9179  15.6146 0001972  74.7501 285.3849 13.17648413161027"},{"name":"ONEWEB-0614","tle1":"1 55156U 23004S   26119.17264380 -.00000440  00000+0 -12782-2 0  9992","tle2":"2 55156  87.8926  30.8235 0001774  85.4799 274.6531 13.11418627159418"},{"name":"ONEWEB-0616","tle1":"1 55157U 23004T   26119.16420594  .00000064  00000+0  13128-3 0  9999","tle2":"2 55157  87.9184  15.6091 0002669  70.7313 289.4107 13.17648752161247"},{"name":"ONEWEB-0617","tle1":"1 55158U 23004U   26119.16076882 -.00000494  00000+0 -14303-2 0  9991","tle2":"2 55158  87.8928  30.8143 0001531  90.7778 269.3526 13.11417322159435"},{"name":"ONEWEB-0618","tle1":"1 55159U 23004V   26119.18002384  .00005358  00000+0  30343-3 0  9995","tle2":"2 55159  86.9139 197.5122 0015189 112.8626 247.4219 15.12712298174852"},{"name":"ONEWEB-0619","tle1":"1 55160U 23004W   26119.12033094  .00000014  00000+0  40528-5 0  9995","tle2":"2 55160  87.9192  15.5944 0002104  90.6378 269.4995 13.17649366161135"},{"name":"ONEWEB-0620","tle1":"1 55161U 23004X   26119.15568683 -.00000381  00000+0 -11110-2 0  9997","tle2":"2 55161  87.8922  30.8268 0001574  73.1312 286.9988 13.11416379159402"},{"name":"ONEWEB-0621","tle1":"1 55162U 23004Y   26119.03022316 -.00000017  00000+0 -83480-4 0  9990","tle2":"2 55162  87.8934  30.8361 0001796  86.2454 273.8880 13.11419515159364"},{"name":"ONEWEB-0622","tle1":"1 55163U 23004Z   26119.18790929  .00000181  00000+0  47354-3 0  9998","tle2":"2 55163  87.8936  30.8066 0001218  96.3510 263.7757 13.11419863159371"},{"name":"ONEWEB-0623","tle1":"1 55164U 23004AA  26119.11526161  .00000015  00000+0  61417-5 0  9991","tle2":"2 55164  87.9179  15.6315 0001797 105.5307 254.6023 13.17648281161124"},{"name":"ONEWEB-0624","tle1":"1 55165U 23004AB  26119.11626759  .00001665  00000+0  45597-2 0  9996","tle2":"2 55165  87.8987   0.3428 0001376  69.5070 290.6206 13.12924719161633"},{"name":"ONEWEB-0625","tle1":"1 55166U 23004AC  26119.10514429  .00000025  00000+0  30607-4 0  9993","tle2":"2 55166  87.9182  15.6282 0001965  79.4072 280.7281 13.17649428161117"},{"name":"ONEWEB-0626","tle1":"1 55167U 23004AD  26119.17094119  .00000331  00000+0  81808-3 0  9998","tle2":"2 55167  87.9180  15.6149 0001693  64.7567 295.3740 13.17647602161127"},{"name":"ONEWEB-0627","tle1":"1 55168U 23004AE  26119.15914024  .00000054  00000+0  10479-3 0  9991","tle2":"2 55168  87.9182  15.6176 0001762  98.3963 261.7368 13.17648184161129"},{"name":"ONEWEB-0628","tle1":"1 55169U 23004AF  26119.15581166 -.00000377  00000+0 -10824-2 0  9992","tle2":"2 55169  87.8994   0.3967 0001880 104.0810 256.0527 13.12443627161603"},{"name":"ONEWEB-0629","tle1":"1 55170U 23004AG  26119.13466641  .00000142  00000+0  33258-3 0  9997","tle2":"2 55170  87.9181  15.6188 0002047  87.4868 272.6498 13.17647362161126"},{"name":"ONEWEB-0631","tle1":"1 55171U 23004AH  26119.16104042  .00000040  00000+0  69559-4 0  9996","tle2":"2 55171  87.9200 345.1878 0001261  80.8726 279.2549 13.18636688163215"},{"name":"ONEWEB-0709","tle1":"1 55172U 23004AJ  26119.14552035  .00000013  00000+0  11667-5 0  9992","tle2":"2 55172  87.8922  30.8314 0001645  49.4212 310.7059 13.11414046159448"},{"name":"ONEWEB-0710","tle1":"1 55173U 23004AK  26119.14901856  .00000062  00000+0  12587-3 0  9996","tle2":"2 55173  87.9179  15.6112 0001673  84.8868 275.2455 13.17648877161122"},{"name":"ONEWEB-0711","tle1":"1 55174U 23004AL  26119.19299559  .00000411  00000+0  11242-2 0  9996","tle2":"2 55174  87.8925  30.8081 0001526 102.3224 257.8075 13.11419333159414"},{"name":"ONEWEB-0713","tle1":"1 55175U 23004AM  26119.13535145  .00000473  00000+0  12991-2 0  9995","tle2":"2 55175  87.8928  30.8199 0001615  90.0308 270.1005 13.11416214159396"},{"name":"ONEWEB-0715","tle1":"1 55176U 23004AN  26119.13026647  .00000508  00000+0  13989-2 0  9995","tle2":"2 55176  87.8934  30.8209 0001333  59.9628 300.1632 13.11416916159436"},{"name":"ONEWEB-0716","tle1":"1 55177U 23004AP  26119.14226632  .00000052  00000+0  10024-3 0  9995","tle2":"2 55177  87.9184  15.6141 0002023  77.2625 282.8732 13.17648184161124"},{"name":"ONEWEB-0717","tle1":"1 55178U 23004AQ  26119.12539304  .00000032  00000+0  49448-4 0  9998","tle2":"2 55178  87.9192  15.6009 0001441 100.4175 259.7119 13.17648271161173"},{"name":"ONEWEB-0719","tle1":"1 55179U 23004AR  26119.13551668  .00000063  00000+0  12799-3 0  9999","tle2":"2 55179  87.9190  15.5800 0002001  81.8282 278.3077 13.17648216161128"},{"name":"ONEWEB-0530","tle1":"1 55796U 23029A   26119.15158036  .00000207  00000+0  47687-3 0  9999","tle2":"2 55796  87.9137 284.2586 0001955 109.6362 250.4982 13.20793151154676"}]}